[{"OBJECT_NAME":"VRSS-1","OBJECT_ID":"2012-052A","EPOCH":"2026-03-09T23:06:08.647776","MEAN_MOTION":14.79803332,"ECCENTRICITY":0.00171344,"INCLINATION":97.6079,"RA_OF_ASC_NODE":50.4386,"ARG_OF_PERICENTER":196.7503,"MEAN_ANOMALY":163.3146,"EPHEMERIS_TYPE":0,"CLASSIFICATION_TYPE":"U","NORAD_CAT_ID":38782,"ELEMENT_SET_NO":999,"REV_AT_EPOCH":72493,"BSTAR":0.00021678471,"MEAN_MOTION_DOT":1.587e-5,"MEAN_MOTION_DDOT":0},{"OBJECT_NAME":"NOAA 16 DEB","OBJECT_ID":"2000-055TD","EPOCH":"2026-03-09T09:16:58.552320","MEAN_MOTION":14.75110666,"ECCENTRICITY":0.00244253,"INCLINATION":98.7712,"RA_OF_ASC_NODE":227.1584,"ARG_OF_PERICENTER":251.8519,"MEAN_ANOMALY":108.0027,"EPHEMERIS_TYPE":0,"CLASSIFICATION_TYPE":"U","NORAD_CAT_ID":42409,"ELEMENT_SET_NO":999,"REV_AT_EPOCH":52060,"BSTAR":0.004834186,"MEAN_MOTION_DOT":0.0003285,"MEAN_MOTION_DDOT":0}]
